STARLINK-34635          
1 64761U 25147G   26189.96170973  .00013852  00000+0  42041-3 0  9993
2 64761  53.1601  37.7133 0001272  99.9983 260.1163 15.34394650 57343
STARLINK-34638          
1 64762U 25147H   26189.99106971  .00008059  00000+0  24938-3 0  9992
2 64762  53.1591  37.1896 0001084  91.3486 268.7641 15.34403019 57353
STARLINK-34534          
1 64763U 25147J   26189.82091761  .00028774  00000+0  85927-3 0  9996
2 64763  53.1594  38.2561 0001127 103.3383 256.7745 15.34407828 57327
STARLINK-34261          
1 64764U 25147K   26189.98476200  .00013044  00000+0  39645-3 0  9999
2 64764  53.1601  37.1459 0001139  88.8555 271.2578 15.34404447 57399
STARLINK-34566          
1 64765U 25147L   26189.80618791  .00013817  00000+0  41921-3 0  9992
2 64765  53.1591  38.1633 0001202 100.5431 259.5707 15.34407421 57320
STARLINK-34645          
1 64766U 25147M   26189.95814691  .00018671  00000+0  64061-3 0  9999
2 64766  53.1596  39.8153 0000963  90.5626 269.5485 15.30216777 57319
STARLINK-34639          
1 64767U 25147N   26190.00790615  .00026818  00000+0  80171-3 0  9999
2 64767  53.1582  37.2858 0000697  90.5526 269.5557 15.34412321 57308
STARLINK-34609          
1 64768U 25147P   26189.82552431  .00017532  00000+0  52852-3 0  9998
2 64768  53.1610  29.7586 0000909  86.4060 273.7047 15.34417431 57441
STARLINK-34246          
1 64769U 25147Q   26189.86501202  .00012930  00000+0  39304-3 0  9997
2 64769  53.1599  37.8211 0001235  74.1368 285.9770 15.34407857 57338
STARLINK-34618          
1 64770U 25147R   26189.97634553  .00014855  00000+0  44963-3 0  9992
2 64770  53.1595  37.0969 0000726  66.5669 293.5410 15.34419642 57286
STARLINK-34541          
1 64771U 25147S   26189.99317776  .00022704  00000+0  68072-3 0  9999
2 64771  53.1582  37.2010 0000620  68.2385 291.8683 15.34415905 57280
STARLINK-34652          
1 64772U 25147T   26189.99947556  .00021603  00000+0  64805-3 0  9992
2 64772  53.1588  37.2368 0001039  84.2275 275.8846 15.34430183 57350
STARLINK-34612          
1 64773U 25147U   26189.98686526  .00013702  00000+0  41579-3 0  9993
2 64773  53.1601  37.1572 0000652  86.8563 273.2514 15.34408773 57355
STARLINK-34621          
1 64774U 25147V   26189.82118701  .00008828  00000+0  30979-3 0  9997
2 64774  53.1613  40.3790 0001191 106.3957 253.7175 15.30205705 57229
STARLINK-34657          
1 64775U 25147W   26190.01001187  .00008138  00000+0  25170-3 0  9991
2 64775  53.1602  37.2991 0001459  92.5388 267.5782 15.34403562 57353
STARLINK-34637          
1 64776U 25147X   26189.95749899  .00013177  00000+0  40034-3 0  9997
2 64776  53.1605  37.6807 0001328  80.6699 279.4454 15.34407827 57272
STARLINK-34547          
1 64777U 25147Y   26189.98265838  .00019246  00000+0  57888-3 0  9995
2 64777  53.1594  37.1321 0001103  87.9812 272.1317 15.34422471 57296
STARLINK-34537          
1 64778U 25147Z   26189.81012282  .00016541  00000+0  56936-3 0  9999
2 64778  53.1589  17.2781 0000567 135.8730 224.2316 15.30199479 57646
STARLINK-34585          
1 64779U 25147AA  26189.95539199  .00014852  00000+0  44999-3 0  9995
2 64779  53.1596  37.6665 0001107 103.4682 256.6444 15.34388243 57295
STARLINK-34491          
1 64780U 25147AB  26189.98055620  .00012599  00000+0  38329-3 0  9998
2 64780  53.1600  37.1144 0001039 104.0209 256.0909 15.34408894 57358
STARLINK-34582          
1 64781U 25147AC  26189.97424274  .00014066  00000+0  42656-3 0  9992
2 64781  53.1595  37.0731 0001034 119.1073 241.0033 15.34408173 57288
STARLINK-34482          
1 64782U 25147AD  26190.01421800  .00025921  00000+0  77530-3 0  9993
2 64782  53.1590  37.3240 0001174  63.0002 297.1120 15.34414274 57396
STARLINK-34629          
1 64790U 25150A   26189.41846063  .00002306  00000+0  20093-3 0  9994
2 64790  70.0004 189.9440 0003899 256.1840 103.8885 14.98339125 54602
STARLINK-34697          
1 64791U 25150B   26189.28895351  .00003003  00000+0  25935-3 0  9999
2 64791  69.9999 190.2885 0004015 262.7491  97.3212 14.98331853 54585
STARLINK-34632          
1 64792U 25150C   26189.98175043  .00001740  00000+0  15357-3 0  9999
2 64792  70.0006 188.5746 0004069 262.6348  97.4349 14.98334709 54689
STARLINK-34693          
1 64793U 25150D   26190.00264887  .00004093  00000+0  35065-3 0  9992
2 64793  69.9988 188.7627 0004021 266.4107  93.6592 14.98327946 54682
STARLINK-34666          
1 64794U 25150E   26190.00246937  .00002866  00000+0  24788-3 0  9995
2 64794  70.0009 188.7688 0003794 263.0406  97.0322 14.98333922 54688
STARLINK-34567          
1 64795U 25150F   26190.01079682  .00002804  00000+0  24267-3 0  9992
2 64795  70.0002 188.3943 0004156 263.2028  96.8659 14.98330496 54691
STARLINK-34646          
1 64796U 25150G   26189.98594950  .00003578  00000+0  30753-3 0  9993
2 64796  69.9998 188.7030 0003592 266.1815  93.8933 14.98327050 55575
STARLINK-34641          
1 64797U 25150H   26189.69787020  .00003236  00000+0  27884-3 0  9996
2 64797  70.0007 189.3063 0003233 272.0288  88.0501 14.98330261 55479
