OBJECT_NAME,OBJECT_ID,EPOCH,MEAN_MOTION,ECCENTRICITY,INCLINATION,RA_OF_ASC_NODE,ARG_OF_PERICENTER,MEAN_ANOMALY,EPHEMERIS_TYPE,CLASSIFICATION_TYPE,NORAD_CAT_ID,ELEMENT_SET_NO,REV_AT_EPOCH,BSTAR,MEAN_MOTION_DOT,MEAN_MOTION_DDOT
STARLINK-34635,2025-147G,2026-07-08T23:04:51.720672,15.34394650,.00012724,53.1601,37.7133,99.9983,260.1163,0,U,64761,999,5734,.42041492E-3,.13852E-3,0
STARLINK-34638,2025-147H,2026-07-08T23:47:08.422944,15.34403019,.00010846,53.1591,37.1896,91.3486,268.7641,0,U,64762,999,5735,.24938113E-3,.8059E-4,0
STARLINK-34534,2025-147J,2026-07-08T19:42:07.281504,15.34407828,.00011271,53.1594,38.2561,103.3383,256.7745,0,U,64763,999,5732,.85927149E-3,.28774E-3,0
STARLINK-34261,2025-147K,2026-07-08T23:38:03.436800,15.34404447,.00011393,53.1601,37.1459,88.8555,271.2578,0,U,64764,999,5739,.39645465E-3,.13044E-3,0
STARLINK-34566,2025-147L,2026-07-08T19:20:54.635424,15.34407421,.00012029,53.1591,38.1633,100.5431,259.5707,0,U,64765,999,5732,.419209E-3,.13817E-3,0
STARLINK-34645,2025-147M,2026-07-08T22:59:43.893024,15.30216777,.00009636,53.1596,39.8153,90.5626,269.5485,0,U,64766,999,5731,.64061021E-3,.18671E-3,0
STARLINK-34639,2025-147N,2026-07-09T00:11:23.091360,15.34412321,.00006973,53.1582,37.2858,90.5526,269.5557,0,U,64767,999,5730,.80170541E-3,.26818E-3,0
STARLINK-34609,2025-147P,2026-07-08T19:48:45.300384,15.34417431,.00009097,53.1610,29.7586,86.4060,273.7047,0,U,64768,999,5744,.52852153E-3,.17532E-3,0
STARLINK-34246,2025-147Q,2026-07-08T20:45:37.038528,15.34407857,.00012352,53.1599,37.8211,74.1368,285.9770,0,U,64769,999,5733,.39304255E-3,.1293E-3,0
STARLINK-34618,2025-147R,2026-07-08T23:25:56.253792,15.34419642,.00007269,53.1595,37.0969,66.5669,293.5410,0,U,64770,999,5728,.44962811E-3,.14855E-3,0
STARLINK-34541,2025-147S,2026-07-08T23:50:10.558464,15.34415905,.00006202,53.1582,37.2010,68.2385,291.8683,0,U,64771,999,5728,.680724E-3,.22704E-3,0
STARLINK-34652,2025-147T,2026-07-08T23:59:14.688384,15.34430183,.00010394,53.1588,37.2368,84.2275,275.8846,0,U,64772,999,5735,.64804525E-3,.21603E-3,0
STARLINK-34612,2025-147U,2026-07-08T23:41:05.158464,15.34408773,.00006525,53.1601,37.1572,86.8563,273.2514,0,U,64773,999,5735,.41579031E-3,.13702E-3,0
STARLINK-34621,2025-147V,2026-07-08T19:42:30.557664,15.30205705,.00011918,53.1613,40.3790,106.3957,253.7175,0,U,64774,999,5722,.30979064E-3,.8828E-4,0
STARLINK-34657,2025-147W,2026-07-09T00:14:25.025568,15.34403562,.00014598,53.1602,37.2991,92.5388,267.5782,0,U,64775,999,5735,.25170405E-3,.8138E-4,0
STARLINK-34637,2025-147X,2026-07-08T22:58:47.912736,15.34407827,.00013284,53.1605,37.6807,80.6699,279.4454,0,U,64776,999,5727,.40033558E-3,.13177E-3,0
STARLINK-34547,2025-147Y,2026-07-08T23:35:01.684032,15.34422471,.00011036,53.1594,37.1321,87.9812,272.1317,0,U,64777,999,5729,.57888265E-3,.19246E-3,0
STARLINK-34537,2025-147Z,2026-07-08T19:26:34.611648,15.30199479,.00005676,53.1589,17.2781,135.8730,224.2316,0,U,64778,999,5764,.56935854E-3,.16541E-3,0
STARLINK-34585,2025-147AA,2026-07-08T22:55:45.867936,15.34388243,.00011075,53.1596,37.6665,103.4682,256.6444,0,U,64779,999,5729,.44999141E-3,.14852E-3,0
STARLINK-34491,2025-147AB,2026-07-08T23:32:00.055680,15.34408894,.00010398,53.1600,37.1144,104.0209,256.0909,0,U,64780,999,5735,.38328811E-3,.12599E-3,0
STARLINK-34582,2025-147AC,2026-07-08T23:22:54.572736,15.34408173,.00010341,53.1595,37.0731,119.1073,241.0033,0,U,64781,999,5728,.42655539E-3,.14066E-3,0
STARLINK-34482,2025-147AD,2026-07-09T00:20:28.435200,15.34414274,.00011747,53.1590,37.3240,63.0002,297.1120,0,U,64782,999,5739,.77530426E-3,.25921E-3,0
STARLINK-34629,2025-150A,2026-07-08T10:02:34.998432,14.98339125,.0003899,70.0004,189.9440,256.1840,103.8885,0,U,64790,999,5460,.20092838E-3,.2306E-4,0
STARLINK-34697,2025-150B,2026-07-08T06:56:05.583264,14.98331853,.00040152,69.9999,190.2885,262.7491,97.3212,0,U,64791,999,5458,.25934503E-3,.3003E-4,0
STARLINK-34632,2025-150C,2026-07-08T23:33:43.237152,14.98334709,.00040691,70.0006,188.5746,262.6348,97.4349,0,U,64792,999,5468,.15357354E-3,.174E-4,0
STARLINK-34693,2025-150D,2026-07-09T00:03:48.862368,14.98327946,.0004021,69.9988,188.7627,266.4107,93.6592,0,U,64793,999,5468,.35064906E-3,.4093E-4,0
STARLINK-34666,2025-150E,2026-07-09T00:03:33.353568,14.98333922,.00037944,70.0009,188.7688,263.0406,97.0322,0,U,64794,999,5468,.24787865E-3,.2866E-4,0
STARLINK-34567,2025-150F,2026-07-09T00:15:32.845248,14.98330496,.00041565,70.0002,188.3943,263.2028,96.8659,0,U,64795,999,5469,.2426739E-3,.2804E-4,0
STARLINK-34646,2025-150G,2026-07-08T23:39:46.036800,14.98327050,.00035925,69.9998,188.7030,266.1815,93.8933,0,U,64796,999,5557,.30753161E-3,.3578E-4,0
STARLINK-34641,2025-150H,2026-07-08T16:44:55.985280,14.98330261,.00032334,70.0007,189.3063,272.0288,88.0501,0,U,64797,999,5547,.27883737E-3,.3236E-4,0
